[
  {
    "City": "A.I.O. Donna Paula",
    "PinCode": 403004
  },
  {
    "City": "A.R.T.C",
    "PinCode": 797115
  },
  {
    "City": "Aberdeen",
    "PinCode": 744204
  },
  {
    "City": "Abhaynagar",
    "PinCode": 799005
  },
  {
    "City": "Addanki",
    "PinCode": 523201
  },
  {
    "City": "Adilabad",
    "PinCode": 504001
  },
  {
    "City": "Adoni",
    "PinCode": 518301
  },
  {
    "City": "Adur",
    "PinCode": 691523
  },
  {
    "City": "Agartala G.P.O",
    "PinCode": 799001
  },
  {
    "City": "Agra",
    "PinCode": 282001
  },
  {
    "City": "Agra Fort",
    "PinCode": 282003
  },
  {
    "City": "Ahmedabad",
    "PinCode": 380001
  },
  {
    "City": "Ahmednagar",
    "PinCode": 414001
  },
  {
    "City": "Aibok",
    "PinCode": 796190
  },
  {
    "City": "Aizawal G.P.O",
    "PinCode": 796001
  },
  {
    "City": "Ajmer",
    "PinCode": 305001
  },
  {
    "City": "Akbarpur",
    "PinCode": 224122
  },
  {
    "City": "Akola",
    "PinCode": 444001
  },
  {
    "City": "Akulto",
    "PinCode": 798619
  },
  {
    "City": "Alathur",
    "PinCode": 678541
  },
  {
    "City": "Aldona",
    "PinCode": 403508
  },
  {
    "City": "Alibag",
    "PinCode": 402201
  },
  {
    "City": "Aligarh",
    "PinCode": 202001
  },
  {
    "City": "Alipur",
    "PinCode": 700027
  },
  {
    "City": "Allagada",
    "PinCode": 518543
  },
  {
    "City": "Allahabad",
    "PinCode": 211001
  },
  {
    "City": "Allahabad City",
    "PinCode": 211003
  },
  {
    "City": "Allahabad Kacheri",
    "PinCode": 211002
  },
  {
    "City": "Allappuzha",
    "PinCode": 688001
  },
  {
    "City": "Almora",
    "PinCode": 263601
  },
  {
    "City": "Along",
    "PinCode": 791001
  },
  {
    "City": "Aluva",
    "PinCode": 683101
  },
  {
    "City": "Alwar",
    "PinCode": 301001
  },
  {
    "City": "Amadalavalasa",
    "PinCode": 532185
  },
  {
    "City": "Amalapuram",
    "PinCode": 533201
  },
  {
    "City": "Amaravati",
    "PinCode": 444601
  },
  {
    "City": "Amarpur",
    "PinCode": 799101
  },
  {
    "City": "Amarpur",
    "PinCode": 799101
  },
  {
    "City": "Ambala Cantt.",
    "PinCode": 133001
  },
  {
    "City": "Ambala City",
    "PinCode": 133003
  },
  {
    "City": "Ambalmukal",
    "PinCode": 682302
  },
  {
    "City": "Ambasa",
    "PinCode": 799289
  },
  {
    "City": "Ambasamudram",
    "PinCode": 627401
  },
  {
    "City": "Ambattur",
    "PinCode": 600053
  },
  {
    "City": "Ambikapur",
    "PinCode": 497001
  },
  {
    "City": "Amini",
    "PinCode": 682552
  },
  {
    "City": "Ampati",
    "PinCode": 794115
  },
  {
    "City": "Ampinagar",
    "PinCode": 799108
  },
  {
    "City": "Amreli",
    "PinCode": 364601
  },
  {
    "City": "Amritsar",
    "PinCode": 143001
  },
  {
    "City": "Amroha",
    "PinCode": 244221
  },
  {
    "City": "Anakpalle",
    "PinCode": 531001
  },
  {
    "City": "Anand",
    "PinCode": 388001
  },
  {
    "City": "Anandpur",
    "PinCode": 799157
  },
  {
    "City": "Anantapur",
    "PinCode": 515001
  },
  {
    "City": "Anantnag",
    "PinCode": 192101
  },
  {
    "City": "Androth",
    "PinCode": 682551
  },
  {
    "City": "Angul",
    "PinCode": 759122
  },
  {
    "City": "Anini",
    "PinCode": 792101
  },
  {
    "City": "Anna Road",
    "PinCode": 600002
  },
  {
    "City": "Arakkonam",
    "PinCode": 631001
  },
  {
    "City": "Arambagh",
    "PinCode": 712601
  },
  {
    "City": "Arasaradi",
    "PinCode": 625016
  },
  {
    "City": "Armoor",
    "PinCode": 503224
  },
  {
    "City": "Arni",
    "PinCode": 632601
  },
  {
    "City": "Arrah",
    "PinCode": 802301
  },
  {
    "City": "Arsikere",
    "PinCode": 573103
  },
  {
    "City": "Arundatinagar",
    "PinCode": 799003
  },
  {
    "City": "Aruppukottai",
    "PinCode": 626101
  },
  {
    "City": "Asansol",
    "PinCode": 713301
  },
  {
    "City": "Ashikkal",
    "PinCode": 682510
  },
  {
    "City": "Aska",
    "PinCode": 761110
  },
  {
    "City": "Assam rifles",
    "PinCode": 793011
  },
  {
    "City": "Athgarh",
    "PinCode": 754029
  },
  {
    "City": "Athni",
    "PinCode": 591304
  },
  {
    "City": "Attili",
    "PinCode": 534134
  },
  {
    "City": "Attungal",
    "PinCode": 695101
  },
  {
    "City": "Atur",
    "PinCode": 636102
  },
  {
    "City": "Auraiya",
    "PinCode": 206122
  },
  {
    "City": "Aurangabad",
    "PinCode": 431001
  },
  {
    "City": "Aurangabad",
    "PinCode": 824101
  },
  {
    "City": "Avadi Camp",
    "PinCode": 600054
  },
  {
    "City": "Avanigadda",
    "PinCode": 521121
  },
  {
    "City": "Azamgarh",
    "PinCode": 276001
  },
  {
    "City": "Bachaibadi",
    "PinCode": 799206
  },
  {
    "City": "Bada bazar",
    "PinCode": 793002
  },
  {
    "City": "Bada pani",
    "PinCode": 793103
  },
  {
    "City": "Bagalkot",
    "PinCode": 587101
  },
  {
    "City": "Baghma",
    "PinCode": 799119
  },
  {
    "City": "Baghmara",
    "PinCode": 794102
  },
  {
    "City": "Bahadurgarh",
    "PinCode": 125417
  },
  {
    "City": "Bahraich",
    "PinCode": 271801
  },
  {
    "City": "Bahror",
    "PinCode": 301701
  },
  {
    "City": "Baidyanadh Deoghar",
    "PinCode": 814112
  },
  {
    "City": "Bailhongal",
    "PinCode": 591102
  },
  {
    "City": "Bakultala",
    "PinCode": 744208
  },
  {
    "City": "Balaghat",
    "PinCode": 481001
  },
  {
    "City": "Balangir",
    "PinCode": 767001
  },
  {
    "City": "Balat",
    "PinCode": 793106
  },
  {
    "City": "Baleshwar",
    "PinCode": 756001
  },
  {
    "City": "Ballia",
    "PinCode": 277001
  },
  {
    "City": "Balrampur",
    "PinCode": 271201
  },
  {
    "City": "Balurghat",
    "PinCode": 733101
  },
  {
    "City": "Banda",
    "PinCode": 210001
  },
  {
    "City": "Bangalore City",
    "PinCode": 560002
  },
  {
    "City": "Bangalore G.P.O.",
    "PinCode": 560001
  },
  {
    "City": "Banka",
    "PinCode": 813102
  },
  {
    "City": "Bankura",
    "PinCode": 722101
  },
  {
    "City": "Bansi",
    "PinCode": 272153
  },
  {
    "City": "Banswara",
    "PinCode": 327001
  },
  {
    "City": "Bapatla",
    "PinCode": 522101
  },
  {
    "City": "Barabanki",
    "PinCode": 225001
  },
  {
    "City": "Barabazar",
    "PinCode": 700007
  },
  {
    "City": "Baramulla",
    "PinCode": 193101
  },
  {
    "City": "Barasat",
    "PinCode": 743201
  },
  {
    "City": "Baraut",
    "PinCode": 250611
  },
  {
    "City": "Barega pada",
    "PinCode": 794103
  },
  {
    "City": "Bareilly",
    "PinCode": 243001
  },
  {
    "City": "Bargarh",
    "PinCode": 768028
  },
  {
    "City": "Baripada",
    "PinCode": 757001
  },
  {
    "City": "Barmer",
    "PinCode": 344001
  },
  {
    "City": "Barmihat",
    "PinCode": 793101
  },
  {
    "City": "Barpeta",
    "PinCode": 781301
  },
  {
    "City": "Barrackpore",
    "PinCode": 743101
  },
  {
    "City": "Barsar",
    "PinCode": 174305
  },
  {
    "City": "Baruipur",
    "PinCode": 743302
  },
  {
    "City": "Basavanagudi",
    "PinCode": 560004
  },
  {
    "City": "Basirhat",
    "PinCode": 743411
  },
  {
    "City": "Basti",
    "PinCode": 272001
  },
  {
    "City": "Bathala",
    "PinCode": 151001
  },
  {
    "City": "Bathinda",
    "PinCode": 151001
  },
  {
    "City": "Bayana",
    "PinCode": 321401
  },
  {
    "City": "Beawar",
    "PinCode": 305901
  },
  {
    "City": "Beed",
    "PinCode": 431122
  },
  {
    "City": "Begusarai",
    "PinCode": 851101
  },
  {
    "City": "Beleghata",
    "PinCode": 700010
  },
  {
    "City": "Belgaum",
    "PinCode": 590001
  },
  {
    "City": "Belgharia",
    "PinCode": 700056
  },
  {
    "City": "Bellary",
    "PinCode": 583101
  },
  {
    "City": "Berhampur",
    "PinCode": 760001
  },
  {
    "City": "Berhampur",
    "PinCode": 742101
  },
  {
    "City": "Bettaih",
    "PinCode": 845438
  },
  {
    "City": "Betul",
    "PinCode": 460001
  },
  {
    "City": "Betul",
    "PinCode": 403603
  },
  {
    "City": "Bhadrachalam",
    "PinCode": 507111
  },
  {
    "City": "Bhadrak",
    "PinCode": 756110
  },
  {
    "City": "Bhadravathi",
    "PinCode": 577301
  },
  {
    "City": "Bhagalpur",
    "PinCode": 812001
  },
  {
    "City": "Bhandara",
    "PinCode": 441904
  },
  {
    "City": "Bhanjanagar",
    "PinCode": 761126
  },
  {
    "City": "Bharatpur",
    "PinCode": 321001
  },
  {
    "City": "Bharatpur City",
    "PinCode": 321001
  },
  {
    "City": "Bharuch",
    "PinCode": 392001
  },
  {
    "City": "Bhattason",
    "PinCode": 841460
  },
  {
    "City": "Bhavani",
    "PinCode": 638301
  },
  {
    "City": "Bhavnagar",
    "PinCode": 364001
  },
  {
    "City": "Bhawani Patana",
    "PinCode": 766001
  },
  {
    "City": "Bhilai SB",
    "PinCode": 490001
  },
  {
    "City": "Bhilwara",
    "PinCode": 311001
  },
  {
    "City": "Bhimavaram",
    "PinCode": 534201
  },
  {
    "City": "Bhind",
    "PinCode": 477001
  },
  {
    "City": "Bhivani",
    "PinCode": 125021
  },
  {
    "City": "Bhongir",
    "PinCode": 508116
  },
  {
    "City": "Bhopal BHEL (SB)",
    "PinCode": 462022
  },
  {
    "City": "Bhopal C.I.T. Nagar",
    "PinCode": 462003
  },
  {
    "City": "Bhopal G.P.O",
    "PinCode": 462001
  },
  {
    "City": "Bhubaneswar G.P.O",
    "PinCode": 751001
  },
  {
    "City": "Bhuj",
    "PinCode": 370001
  },
  {
    "City": "Bhusaval",
    "PinCode": 425201
  },
  {
    "City": "Bidar",
    "PinCode": 585401
  },
  {
    "City": "Bihar Shariff",
    "PinCode": 803101
  },
  {
    "City": "Bijapur",
    "PinCode": 586101
  },
  {
    "City": "Bijnor",
    "PinCode": 246701
  },
  {
    "City": "Bikaner",
    "PinCode": 334001
  },
  {
    "City": "Bilaspur",
    "PinCode": 495001
  },
  {
    "City": "Bilaspur",
    "PinCode": 174001
  },
  {
    "City": "Bilimora",
    "PinCode": 396321
  },
  {
    "City": "Bishanpur",
    "PinCode": 795126
  },
  {
    "City": "Bobbili",
    "PinCode": 532558
  },
  {
    "City": "Bodinayakanur",
    "PinCode": 625513
  },
  {
    "City": "Bokaro Steel City",
    "PinCode": 827001
  },
  {
    "City": "Bokshanagar",
    "PinCode": 799106
  },
  {
    "City": "Bolganj bazar",
    "PinCode": 793107
  },
  {
    "City": "Bolomia",
    "PinCode": 799155
  },
  {
    "City": "Bongmun",
    "PinCode": 796710
  },
  {
    "City": "Bordoli",
    "PinCode": 394601
  },
  {
    "City": "Borholla",
    "PinCode": 798631
  },
  {
    "City": "Borivali",
    "PinCode": 400091
  },
  {
    "City": "Botad",
    "PinCode": 364710
  },
  {
    "City": "Buchinghampet",
    "PinCode": 520002
  },
  {
    "City": "Budaun",
    "PinCode": 243601
  },
  {
    "City": "Bulandshahar",
    "PinCode": 203001
  },
  {
    "City": "Buldhana",
    "PinCode": 443001
  },
  {
    "City": "Bundi",
    "PinCode": 323001
  },
  {
    "City": "Burdwan",
    "PinCode": 713101
  },
  {
    "City": "Buzar",
    "PinCode": 802101
  },
  {
    "City": "Calcutta G.P.O",
    "PinCode": 700001
  },
  {
    "City": "Campwell Bay",
    "PinCode": 744302
  },
  {
    "City": "Car Nicobar",
    "PinCode": 744301
  },
  {
    "City": "Chaibasa",
    "PinCode": 833201
  },
  {
    "City": "Chaichima",
    "PinCode": 797105
  },
  {
    "City": "Chakpirang",
    "PinCode": 795102
  },
  {
    "City": "Chalakudi",
    "PinCode": 680307
  },
  {
    "City": "Chalisgaon",
    "PinCode": 424101
  },
  {
    "City": "Chamba",
    "PinCode": 176310
  },
  {
    "City": "Champang",
    "PinCode": 798603
  },
  {
    "City": "Champhai",
    "PinCode": 796321
  },
  {
    "City": "Chandel",
    "PinCode": 795127
  },
  {
    "City": "Chandigarh",
    "PinCode": 160017
  },
  {
    "City": "Chandmari",
    "PinCode": 796007
  },
  {
    "City": "Chandnichowk",
    "PinCode": 753002
  },
  {
    "City": "Chandragiri",
    "PinCode": 517101
  },
  {
    "City": "Chandrapur",
    "PinCode": 442401
  },
  {
    "City": "Chandrapur",
    "PinCode": 799251
  },
  {
    "City": "Changlang",
    "PinCode": 792120
  },
  {
    "City": "Channapatna",
    "PinCode": 571501
  },
  {
    "City": "Chaokham",
    "PinCode": 792104
  },
  {
    "City": "Chapra",
    "PinCode": 841301
  },
  {
    "City": "Chareelum",
    "PinCode": 799107
  },
  {
    "City": "Chatrapur",
    "PinCode": 761020
  },
  {
    "City": "Chembur",
    "PinCode": 400071
  },
  {
    "City": "Chengalpattu",
    "PinCode": 603001
  },
  {
    "City": "Chenganacherry",
    "PinCode": 686101
  },
  {
    "City": "Chengannur",
    "PinCode": 689121
  },
  {
    "City": "Chera bazar",
    "PinCode": 793111
  },
  {
    "City": "Cherrapunji",
    "PinCode": 793108
  },
  {
    "City": "Cherthala",
    "PinCode": 688524
  },
  {
    "City": "Chhaindwara",
    "PinCode": 480001
  },
  {
    "City": "Chhatarpur City",
    "PinCode": 471001
  },
  {
    "City": "Chickballapur",
    "PinCode": 562101
  },
  {
    "City": "Chickmagalur",
    "PinCode": 577101
  },
  {
    "City": "Chidambaram",
    "PinCode": 608001
  },
  {
    "City": "Chijami",
    "PinCode": 797102
  },
  {
    "City": "Chikhli",
    "PinCode": 403711
  },
  {
    "City": "Chikodi",
    "PinCode": 591201
  },
  {
    "City": "Chilakaluripeta",
    "PinCode": 522616
  },
  {
    "City": "Chinchbunder",
    "PinCode": 400009
  },
  {
    "City": "Chingkompong",
    "PinCode": 795158
  },
  {
    "City": "Chinsurah",
    "PinCode": 712101
  },
  {
    "City": "Chiplun",
    "PinCode": 415605
  },
  {
    "City": "Chirala",
    "PinCode": 523115
  },
  {
    "City": "Chirawa",
    "PinCode": 333026
  },
  {
    "City": "Chitradurga",
    "PinCode": 577501
  },
  {
    "City": "Chittoor",
    "PinCode": 517001
  },
  {
    "City": "Chittorgarh",
    "PinCode": 312001
  },
  {
    "City": "Chochuba",
    "PinCode": 797104
  },
  {
    "City": "Chodavaram",
    "PinCode": 531036
  },
  {
    "City": "Chongtai",
    "PinCode": 796770
  },
  {
    "City": "Chuchaimalang",
    "PinCode": 798614
  },
  {
    "City": "Chumukidima",
    "PinCode": 797103
  },
  {
    "City": "Churachandpur",
    "PinCode": 795128
  },
  {
    "City": "Churu",
    "PinCode": 331001
  },
  {
    "City": "Cobichettipalayam",
    "PinCode": 638401
  },
  {
    "City": "Coimbatore",
    "PinCode": 641001
  },
  {
    "City": "Contai",
    "PinCode": 721401
  },
  {
    "City": "Cooch Behar",
    "PinCode": 736101
  },
  {
    "City": "Coonoor",
    "PinCode": 643101
  },
  {
    "City": "Cossipore",
    "PinCode": 700002
  },
  {
    "City": "Cuddalore",
    "PinCode": 607001
  },
  {
    "City": "Cuddapah",
    "PinCode": 516001
  },
  {
    "City": "Cuttack",
    "PinCode": 753001
  },
  {
    "City": "Dabhoi",
    "PinCode": 391110
  },
  {
    "City": "Dabki",
    "PinCode": 793109
  },
  {
    "City": "Dadar",
    "PinCode": 400014
  },
  {
    "City": "Dahod",
    "PinCode": 389151
  },
  {
    "City": "Daltonganj",
    "PinCode": 822101
  },
  {
    "City": "Damoh",
    "PinCode": 470661
  },
  {
    "City": "Daporizo",
    "PinCode": 791122
  },
  {
    "City": "Darbhanga",
    "PinCode": 846004
  },
  {
    "City": "Dargamitta",
    "PinCode": 524003
  },
  {
    "City": "Darjeeling",
    "PinCode": 734101
  },
  {
    "City": "Darlawn",
    "PinCode": 796111
  },
  {
    "City": "Dasuya",
    "PinCode": 144205
  },
  {
    "City": "Datia",
    "PinCode": 475661
  },
  {
    "City": "Dausa",
    "PinCode": 303301
  },
  {
    "City": "Davangere",
    "PinCode": 577001
  },
  {
    "City": "Deeg",
    "PinCode": 321203
  },
  {
    "City": "Dehra Gopipur",
    "PinCode": 177101
  },
  {
    "City": "Dehradun",
    "PinCode": 248001
  },
  {
    "City": "Dehradun Cantt.",
    "PinCode": 248003
  },
  {
    "City": "Demgiri",
    "PinCode": 796751
  },
  {
    "City": "Deomali",
    "PinCode": 786629
  },
  {
    "City": "Deoria",
    "PinCode": 274001
  },
  {
    "City": "Devakottai",
    "PinCode": 630302
  },
  {
    "City": "Dewas",
    "PinCode": 455001
  },
  {
    "City": "Dhamloan",
    "PinCode": 795143
  },
  {
    "City": "Dhampur",
    "PinCode": 403504
  },
  {
    "City": "Dhampur",
    "PinCode": 246761
  },
  {
    "City": "Dhanbad",
    "PinCode": 826001
  },
  {
    "City": "Dhar",
    "PinCode": 454001
  },
  {
    "City": "Dharamnagar G.P.O",
    "PinCode": 799250
  },
  {
    "City": "Dharapuram",
    "PinCode": 638656
  },
  {
    "City": "Dharmapuri",
    "PinCode": 636701
  },
  {
    "City": "Dharmavaram",
    "PinCode": 516671
  },
  {
    "City": "Dharwad",
    "PinCode": 580001
  },
  {
    "City": "Dhenkanal",
    "PinCode": 759001
  },
  {
    "City": "Dholka",
    "PinCode": 387810
  },
  {
    "City": "Dholpur",
    "PinCode": 328001
  },
  {
    "City": "Dhramsala",
    "PinCode": 176215
  },
  {
    "City": "Dhubri",
    "PinCode": 783301
  },
  {
    "City": "Dhule",
    "PinCode": 424001
  },
  {
    "City": "Diamond Harbour",
    "PinCode": 743331
  },
  {
    "City": "Dibrugarh",
    "PinCode": 786001
  },
  {
    "City": "Dicholi",
    "PinCode": 403705
  },
  {
    "City": "Didwana",
    "PinCode": 341301
  },
  {
    "City": "Diglipur",
    "PinCode": 744202
  },
  {
    "City": "Dikchu",
    "PinCode": 737107
  },
  {
    "City": "Dimapur",
    "PinCode": 797112
  },
  {
    "City": "Dindigul",
    "PinCode": 624001
  },
  {
    "City": "Dirang",
    "PinCode": 790101
  },
  {
    "City": "Disa",
    "PinCode": 385535
  },
  {
    "City": "Dobasipada",
    "PinCode": 794005
  },
  {
    "City": "Doimukh",
    "PinCode": 791112
  },
  {
    "City": "Drishnapur",
    "PinCode": 741101
  },
  {
    "City": "Dumka",
    "PinCode": 814101
  },
  {
    "City": "Dungarpur",
    "PinCode": 314001
  },
  {
    "City": "Durg",
    "PinCode": 491001
  },
  {
    "City": "Durgapur",
    "PinCode": 713201
  },
  {
    "City": "Eluru",
    "PinCode": 534001
  },
  {
    "City": "Ernakulam",
    "PinCode": 682011
  },
  {
    "City": "Erode",
    "PinCode": 638001
  },
  {
    "City": "Etah",
    "PinCode": 207001
  },
  {
    "City": "Etawah",
    "PinCode": 206001
  },
  {
    "City": "Faizabad",
    "PinCode": 224001
  },
  {
    "City": "Faridabad",
    "PinCode": 121001
  },
  {
    "City": "Faridkot",
    "PinCode": 151203
  },
  {
    "City": "Fatehgarh",
    "PinCode": 209601
  },
  {
    "City": "Fatehpur",
    "PinCode": 332310
  },
  {
    "City": "Fatehpur",
    "PinCode": 212601
  },
  {
    "City": "Ferozepur",
    "PinCode": 152001
  },
  {
    "City": "Firozabad",
    "PinCode": 283203
  },
  {
    "City": "Gadag",
    "PinCode": 582101
  },
  {
    "City": "Gadwal",
    "PinCode": 509125
  },
  {
    "City": "Gandhi Nagar",
    "PinCode": 382010
  },
  {
    "City": "Gandhinagar (Jaipur)",
    "PinCode": 302015
  },
  {
    "City": "Gandhinagar (Jammu)",
    "PinCode": 180004
  },
  {
    "City": "Gangapur R.S",
    "PinCode": 322201
  },
  {
    "City": "Gangtok",
    "PinCode": 737101
  },
  {
    "City": "Gangtok G.P.O",
    "PinCode": 737101
  },
  {
    "City": "Garobandha",
    "PinCode": 794105
  },
  {
    "City": "Gaya",
    "PinCode": 823001
  },
  {
    "City": "Ghatkoper East",
    "PinCode": 400086
  },
  {
    "City": "Ghaziabad",
    "PinCode": 201001
  },
  {
    "City": "Ghazipur",
    "PinCode": 233001
  },
  {
    "City": "Girgaon",
    "PinCode": 400004
  },
  {
    "City": "Giribam",
    "PinCode": 788105
  },
  {
    "City": "Giridih",
    "PinCode": 815301
  },
  {
    "City": "Godhra",
    "PinCode": 389001
  },
  {
    "City": "Gohana",
    "PinCode": 124301
  },
  {
    "City": "Gokak",
    "PinCode": 591307
  },
  {
    "City": "Gonda",
    "PinCode": 271001
  },
  {
    "City": "Gondal",
    "PinCode": 360311
  },
  {
    "City": "Gondia",
    "PinCode": 441601
  },
  {
    "City": "Gopalganj",
    "PinCode": 841428
  },
  {
    "City": "Gopeshwar",
    "PinCode": 246401
  },
  {
    "City": "Gorakhpur",
    "PinCode": 273001
  },
  {
    "City": "Gudivada",
    "PinCode": 521301
  },
  {
    "City": "Gudiyattam",
    "PinCode": 632602
  },
  {
    "City": "Gudur",
    "PinCode": 524101
  },
  {
    "City": "Gular thal",
    "PinCode": 788115
  },
  {
    "City": "Gulbarga",
    "PinCode": 585101
  },
  {
    "City": "Gumla",
    "PinCode": 835207
  },
  {
    "City": "Guna",
    "PinCode": 473001
  },
  {
    "City": "Guntakal",
    "PinCode": 515801
  },
  {
    "City": "Guntur",
    "PinCode": 522001
  },
  {
    "City": "Gurdaspur",
    "PinCode": 143521
  },
  {
    "City": "Gurgaon",
    "PinCode": 122001
  },
  {
    "City": "Guwahati",
    "PinCode": 781001
  },
  {
    "City": "Guwahati University",
    "PinCode": 781014
  },
  {
    "City": "Gwalior (Lashkar)",
    "PinCode": 474001
  },
  {
    "City": "HAL II Stage",
    "PinCode": 560008
  },
  {
    "City": "Hajipur",
    "PinCode": 844101
  },
  {
    "City": "Haldwani",
    "PinCode": 263139
  },
  {
    "City": "Hamirpur",
    "PinCode": 177001
  },
  {
    "City": "Hamirpur",
    "PinCode": 210301
  },
  {
    "City": "Hanamkonda",
    "PinCode": 506001
  },
  {
    "City": "Hanumangarh Junction",
    "PinCode": 335512
  },
  {
    "City": "Happy valley",
    "PinCode": 793007
  },
  {
    "City": "Hapur",
    "PinCode": 245101
  },
  {
    "City": "Harapanhalli",
    "PinCode": 583131
  },
  {
    "City": "Hardoi",
    "PinCode": 241001
  },
  {
    "City": "Hassan",
    "PinCode": 573201
  },
  {
    "City": "Haveri",
    "PinCode": 581110
  },
  {
    "City": "Hayuliyang",
    "PinCode": 792102
  },
  {
    "City": "Hazaribagh",
    "PinCode": 825301
  },
  {
    "City": "Hemlauk",
    "PinCode": 744211
  },
  {
    "City": "Hill top",
    "PinCode": 791103
  },
  {
    "City": "Himat Nagar",
    "PinCode": 383001
  },
  {
    "City": "Hindaun",
    "PinCode": 322230
  },
  {
    "City": "Hindupur",
    "PinCode": 515201
  },
  {
    "City": "Hinoo",
    "PinCode": 834002
  },
  {
    "City": "Hissar",
    "PinCode": 125001
  },
  {
    "City": "Hoshangabad",
    "PinCode": 461001
  },
  {
    "City": "Hoshiarpur",
    "PinCode": 146001
  },
  {
    "City": "Hospet",
    "PinCode": 583201
  },
  {
    "City": "Howrah",
    "PinCode": 711101
  },
  {
    "City": "Hubli",
    "PinCode": 580020
  },
  {
    "City": "Hukeri",
    "PinCode": 591309
  },
  {
    "City": "Huzurabad",
    "PinCode": 505468
  },
  {
    "City": "Hyderabad G.P.O",
    "PinCode": 500001
  },
  {
    "City": "Hyderabad Jubilee",
    "PinCode": 500002
  },
  {
    "City": "Ichalkaranji",
    "PinCode": 416115
  },
  {
    "City": "Imphal G.P.O",
    "PinCode": 795001
  },
  {
    "City": "Impur",
    "PinCode": 798619
  },
  {
    "City": "Indi",
    "PinCode": 586209
  },
  {
    "City": "Indore",
    "PinCode": 452001
  },
  {
    "City": "Ingkiyong",
    "PinCode": 791002
  },
  {
    "City": "Irinjalakuda",
    "PinCode": 680121
  },
  {
    "City": "Itanagar G.P.O",
    "PinCode": 791111
  },
  {
    "City": "Kadamtala",
    "PinCode": 744209
  },
  {
    "City": "Kadamtala",
    "PinCode": 799261
  },
  {
    "City": "Kadnat",
    "PinCode": 682556
  },
  {
    "City": "Kaikalur",
    "PinCode": 521333
  },
  {
    "City": "Kailashahar",
    "PinCode": 799277
  },
  {
    "City": "Kakching bazar",
    "PinCode": 795103
  },
  {
    "City": "Kakinada",
    "PinCode": 533001
  },
  {
    "City": "Kaknad",
    "PinCode": 682030
  },
  {
    "City": "Kala pahad",
    "PinCode": 795122
  },
  {
    "City": "Kalbadevi",
    "PinCode": 400002
  },
  {
    "City": "Kalkalang",
    "PinCode": 790002
  },
  {
    "City": "Kallakurichi",
    "PinCode": 606202
  },
  {
    "City": "Kalol",
    "PinCode": 382721
  },
  {
    "City": "Kalpeni",
    "PinCode": 682557
  },
  {
    "City": "Kalpett",
    "PinCode": 673121
  },
  {
    "City": "Kalyan City",
    "PinCode": 421301
  },
  {
    "City": "Kalyanpur",
    "PinCode": 799203
  },
  {
    "City": "Kamalghat",
    "PinCode": 799210
  },
  {
    "City": "Kamalpur",
    "PinCode": 799285
  },
  {
    "City": "Kamareddy",
    "PinCode": 503111
  },
  {
    "City": "Kamptee",
    "PinCode": 441001
  },
  {
    "City": "Kanchanbadi",
    "PinCode": 799288
  },
  {
    "City": "Kanchanpur",
    "PinCode": 799270
  },
  {
    "City": "Kanchipuram",
    "PinCode": 631501
  },
  {
    "City": "Kandi",
    "PinCode": 742137
  },
  {
    "City": "Kandoli",
    "PinCode": 403515
  },
  {
    "City": "Kandukur",
    "PinCode": 523105
  },
  {
    "City": "Kangra",
    "PinCode": 176001
  },
  {
    "City": "Kanhangad",
    "PinCode": 673315
  },
  {
    "City": "Kanigiri",
    "PinCode": 523230
  },
  {
    "City": "Kanjeri",
    "PinCode": 676121
  },
  {
    "City": "Kanjirapally",
    "PinCode": 686507
  },
  {
    "City": "Kanker",
    "PinCode": 494334
  },
  {
    "City": "Kankroli",
    "PinCode": 313324
  },
  {
    "City": "Kannur",
    "PinCode": 670001
  },
  {
    "City": "Kanpur",
    "PinCode": 208001
  },
  {
    "City": "Kanpur Cantt.",
    "PinCode": 208004
  },
  {
    "City": "Kantolim",
    "PinCode": 403710
  },
  {
    "City": "Kapanga",
    "PinCode": 744309
  },
  {
    "City": "Kapurthala",
    "PinCode": 144601
  },
  {
    "City": "Karad",
    "PinCode": 415110
  },
  {
    "City": "Karaikudi",
    "PinCode": 630001
  },
  {
    "City": "Karimganj",
    "PinCode": 788710
  },
  {
    "City": "Karimnagar",
    "PinCode": 505001
  },
  {
    "City": "Karkala",
    "PinCode": 574104
  },
  {
    "City": "Karnal",
    "PinCode": 132001
  },
  {
    "City": "Karong",
    "PinCode": 795106
  },
  {
    "City": "Karunagapally",
    "PinCode": 690518
  },
  {
    "City": "Karur",
    "PinCode": 639001
  },
  {
    "City": "Karwar",
    "PinCode": 581301
  },
  {
    "City": "Kasaragod",
    "PinCode": 671121
  },
  {
    "City": "Kasavali",
    "PinCode": 403712
  },
  {
    "City": "Kathali",
    "PinCode": 799132
  },
  {
    "City": "Kathihar",
    "PinCode": 854105
  },
  {
    "City": "Kathua",
    "PinCode": 184101
  },
  {
    "City": "Katni",
    "PinCode": 483501
  },
  {
    "City": "Kattappana",
    "PinCode": 685508
  },
  {
    "City": "Katwa",
    "PinCode": 713130
  },
  {
    "City": "Kavali",
    "PinCode": 524201
  },
  {
    "City": "Kavlem",
    "PinCode": 403410
  },
  {
    "City": "Kayamkulam",
    "PinCode": 690502
  },
  {
    "City": "Kenndrapara",
    "PinCode": 754211
  },
  {
    "City": "Keonjargarh",
    "PinCode": 758001
  },
  {
    "City": "Khairatabad",
    "PinCode": 500004
  },
  {
    "City": "Khambhalia",
    "PinCode": 361305
  },
  {
    "City": "Khamgaon",
    "PinCode": 444303
  },
  {
    "City": "Khammam",
    "PinCode": 507001
  },
  {
    "City": "Khandwa",
    "PinCode": 450001
  },
  {
    "City": "Khanna",
    "PinCode": 141401
  },
  {
    "City": "Khargone",
    "PinCode": 451001
  },
  {
    "City": "Khayerpur",
    "PinCode": 799008
  },
  {
    "City": "Kheda",
    "PinCode": 387411
  },
  {
    "City": "Kheri",
    "PinCode": 262701
  },
  {
    "City": "Khilerihat",
    "PinCode": 793200
  },
  {
    "City": "Khojovai",
    "PinCode": 796310
  },
  {
    "City": "Khousa",
    "PinCode": 786630
  },
  {
    "City": "Khowai",
    "PinCode": 799201
  },
  {
    "City": "Khurda",
    "PinCode": 752055
  },
  {
    "City": "Khurja",
    "PinCode": 203131
  },
  {
    "City": "Kimin",
    "PinCode": 791121
  },
  {
    "City": "Kiphir",
    "PinCode": 798611
  },
  {
    "City": "Kochi",
    "PinCode": 682001
  },
  {
    "City": "Kohima G.P.O",
    "PinCode": 797001
  },
  {
    "City": "Kolar",
    "PinCode": 563101
  },
  {
    "City": "Kolhapur",
    "PinCode": 416003
  },
  {
    "City": "Kolhapur City",
    "PinCode": 416012
  },
  {
    "City": "Kollam",
    "PinCode": 691001
  },
  {
    "City": "Kollegal",
    "PinCode": 571440
  },
  {
    "City": "Kolosib",
    "PinCode": 796081
  },
  {
    "City": "Kongkopi",
    "PinCode": 795129
  },
  {
    "City": "Koppa",
    "PinCode": 577126
  },
  {
    "City": "Koppal",
    "PinCode": 583231
  },
  {
    "City": "Koraput",
    "PinCode": 764020
  },
  {
    "City": "Korba",
    "PinCode": 495667
  },
  {
    "City": "Kota",
    "PinCode": 324001
  },
  {
    "City": "Kothapeta",
    "PinCode": 533233
  },
  {
    "City": "Kothgudem Collieries",
    "PinCode": 507101
  },
  {
    "City": "Kottarakara",
    "PinCode": 691506
  },
  {
    "City": "Kottayam",
    "PinCode": 686001
  },
  {
    "City": "Kovilpatti",
    "PinCode": 628501
  },
  {
    "City": "Kovvur",
    "PinCode": 534350
  },
  {
    "City": "Kowpoi",
    "PinCode": 796070
  },
  {
    "City": "Kozhikode",
    "PinCode": 673001
  },
  {
    "City": "Kozhikode Civil Station",
    "PinCode": 673020
  },
  {
    "City": "Krishnagiri",
    "PinCode": 635001
  },
  {
    "City": "Kulashekar",
    "PinCode": 575005
  },
  {
    "City": "Kuli bazar",
    "PinCode": 799204
  },
  {
    "City": "Kulittalai",
    "PinCode": 639104
  },
  {
    "City": "Kullu",
    "PinCode": 175101
  },
  {
    "City": "Kulokon",
    "PinCode": 796005
  },
  {
    "City": "Kumar ghat",
    "PinCode": 799264
  },
  {
    "City": "Kumbakonam",
    "PinCode": 612001
  },
  {
    "City": "Kumta",
    "PinCode": 581343
  },
  {
    "City": "Kundapura",
    "PinCode": 576201
  },
  {
    "City": "Kunjvan",
    "PinCode": 799006
  },
  {
    "City": "Kunnamkulam",
    "PinCode": 680503
  },
  {
    "City": "Kunraghat",
    "PinCode": 273008
  },
  {
    "City": "Kurukshetra",
    "PinCode": 132118
  },
  {
    "City": "Kuvep",
    "PinCode": 403705
  },
  {
    "City": "Labaan",
    "PinCode": 793004
  },
  {
    "City": "Labarchandmari",
    "PinCode": 794002
  },
  {
    "City": "Laheriasarai",
    "PinCode": 846001
  },
  {
    "City": "Lakhibera",
    "PinCode": 796471
  },
  {
    "City": "Lalganj",
    "PinCode": 229206
  },
  {
    "City": "Lalitpur",
    "PinCode": 284403
  },
  {
    "City": "Lamlongbazar",
    "PinCode": 795010
  },
  {
    "City": "Lamphelpat",
    "PinCode": 795004
  },
  {
    "City": "Lamsang",
    "PinCode": 795140
  },
  {
    "City": "Landsdowne",
    "PinCode": 246155
  },
  {
    "City": "Langding",
    "PinCode": 786631
  },
  {
    "City": "Latur",
    "PinCode": 413512
  },
  {
    "City": "Leh",
    "PinCode": 194101
  },
  {
    "City": "Light core peak",
    "PinCode": 793010
  },
  {
    "City": "Lightmukhra",
    "PinCode": 793003
  },
  {
    "City": "Likabili",
    "PinCode": 791125
  },
  {
    "City": "Lilong",
    "PinCode": 795130
  },
  {
    "City": "Loktak Project",
    "PinCode": 795124
  },
  {
    "City": "Loleim",
    "PinCode": 403728
  },
  {
    "City": "Longlai",
    "PinCode": 796891
  },
  {
    "City": "Lucknow Chowk",
    "PinCode": 226003
  },
  {
    "City": "Lucknow GPO",
    "PinCode": 226001
  },
  {
    "City": "Ludhiana",
    "PinCode": 141001
  },
  {
    "City": "Lungdar",
    "PinCode": 796370
  },
  {
    "City": "Lunglei",
    "PinCode": 796701
  },
  {
    "City": "Lungsein",
    "PinCode": 796730
  },
  {
    "City": "Machilipatnam",
    "PinCode": 521001
  },
  {
    "City": "Madanganj",
    "PinCode": 305801
  },
  {
    "City": "Madasa",
    "PinCode": 383315
  },
  {
    "City": "Madhobewala",
    "PinCode": 248110
  },
  {
    "City": "Madhubani",
    "PinCode": 847211
  },
  {
    "City": "Madikeri",
    "PinCode": 571201
  },
  {
    "City": "Madras GPO",
    "PinCode": 600001
  },
  {
    "City": "Madurai",
    "PinCode": 625001
  },
  {
    "City": "Mahabubnagar",
    "PinCode": 509001
  },
  {
    "City": "Mahbubabad",
    "PinCode": 506101
  },
  {
    "City": "Mahesana",
    "PinCode": 384001
  },
  {
    "City": "Mahim",
    "PinCode": 400016
  },
  {
    "City": "Maidjiphema",
    "PinCode": 797106
  },
  {
    "City": "Mailuri",
    "PinCode": 797114
  },
  {
    "City": "Mainpuri",
    "PinCode": 205001
  },
  {
    "City": "Majorda",
    "PinCode": 403723
  },
  {
    "City": "Makrana",
    "PinCode": 341505
  },
  {
    "City": "Makshmara",
    "PinCode": 799265
  },
  {
    "City": "Malappuram",
    "PinCode": 676505
  },
  {
    "City": "Malda",
    "PinCode": 732101
  },
  {
    "City": "Malegaon town",
    "PinCode": 423203
  },
  {
    "City": "Mall",
    "PinCode": 735221
  },
  {
    "City": "Malvan",
    "PinCode": 416606
  },
  {
    "City": "Mamit",
    "PinCode": 796441
  },
  {
    "City": "Manamadurai",
    "PinCode": 630606
  },
  {
    "City": "Mancherial",
    "PinCode": 504208
  },
  {
    "City": "Mandapeta",
    "PinCode": 533308
  },
  {
    "City": "Mandgaon G.P.O",
    "PinCode": 403601
  },
  {
    "City": "Mandi",
    "PinCode": 175001
  },
  {
    "City": "Mandi pathar",
    "PinCode": 794112
  },
  {
    "City": "Mandla",
    "PinCode": 481661
  },
  {
    "City": "Mandsaur",
    "PinCode": 458001
  },
  {
    "City": "Mandvi",
    "PinCode": 400003
  },
  {
    "City": "Mandvi",
    "PinCode": 370465
  },
  {
    "City": "Mandya",
    "PinCode": 571401
  },
  {
    "City": "Mangalagiri",
    "PinCode": 522203
  },
  {
    "City": "Mangaldoi",
    "PinCode": 784125
  },
  {
    "City": "Mangalore",
    "PinCode": 575001
  },
  {
    "City": "Mangan",
    "PinCode": 737116
  },
  {
    "City": "Manipal",
    "PinCode": 576119
  },
  {
    "City": "Manipur vishwavidyalay",
    "PinCode": 795003
  },
  {
    "City": "Mannargudi",
    "PinCode": 614001
  },
  {
    "City": "Mantri Pokhri",
    "PinCode": 795002
  },
  {
    "City": "Manubazar",
    "PinCode": 799143
  },
  {
    "City": "Manughat",
    "PinCode": 799275
  },
  {
    "City": "Mao",
    "PinCode": 795150
  },
  {
    "City": "Margo",
    "PinCode": 403601
  },
  {
    "City": "Marhowrah",
    "PinCode": 841418
  },
  {
    "City": "Markapur",
    "PinCode": 523316
  },
  {
    "City": "Marwar Jn.",
    "PinCode": 306001
  },
  {
    "City": "Masanapalle",
    "PinCode": 517325
  },
  {
    "City": "Mathura",
    "PinCode": 281001
  },
  {
    "City": "Mati",
    "PinCode": 799159
  },
  {
    "City": "Mau Nath Bhanjan",
    "PinCode": 275101
  },
  {
    "City": "Mavelikara",
    "PinCode": 690101
  },
  {
    "City": "Mavli Jn.",
    "PinCode": 313203
  },
  {
    "City": "Mawphlang",
    "PinCode": 793121
  },
  {
    "City": "Mayabandar",
    "PinCode": 744204
  },
  {
    "City": "Mayang Imphal",
    "PinCode": 795132
  },
  {
    "City": "Mayiladuthurai",
    "PinCode": 609001
  },
  {
    "City": "Mebo",
    "PinCode": 791104
  },
  {
    "City": "Mechuka",
    "PinCode": 792051
  },
  {
    "City": "Medak",
    "PinCode": 502110
  },
  {
    "City": "Meeo",
    "PinCode": 792122
  },
  {
    "City": "Meerut",
    "PinCode": 250001
  },
  {
    "City": "Meerut City",
    "PinCode": 250002
  },
  {
    "City": "Melaghar",
    "PinCode": 799115
  },
  {
    "City": "Melakaveri",
    "PinCode": 612002
  },
  {
    "City": "Mepusa",
    "PinCode": 403507
  },
  {
    "City": "Mettupalayam",
    "PinCode": 641301
  },
  {
    "City": "Midnapore",
    "PinCode": 721101
  },
  {
    "City": "Minicoy",
    "PinCode": 682529
  },
  {
    "City": "Miraj",
    "PinCode": 416410
  },
  {
    "City": "Mirzapur",
    "PinCode": 231001
  },
  {
    "City": "Moga",
    "PinCode": 142001
  },
  {
    "City": "Mohanpur",
    "PinCode": 799211
  },
  {
    "City": "Mohripur",
    "PinCode": 799142
  },
  {
    "City": "Moirang",
    "PinCode": 795133
  },
  {
    "City": "Mokokchung",
    "PinCode": 798601
  },
  {
    "City": "Mon",
    "PinCode": 798621
  },
  {
    "City": "Monghyr",
    "PinCode": 811201
  },
  {
    "City": "Monkolemba",
    "PinCode": 798604
  },
  {
    "City": "Moradabad",
    "PinCode": 244001
  },
  {
    "City": "Morai",
    "PinCode": 795131
  },
  {
    "City": "Morar",
    "PinCode": 474006
  },
  {
    "City": "Morbi",
    "PinCode": 363641
  },
  {
    "City": "Morena",
    "PinCode": 476001
  },
  {
    "City": "Mosunram",
    "PinCode": 793113
  },
  {
    "City": "Motihari",
    "PinCode": 845401
  },
  {
    "City": "Mowkarvat",
    "PinCode": 793114
  },
  {
    "City": "Mowpat",
    "PinCode": 793012
  },
  {
    "City": "Mriyalguda",
    "PinCode": 508207
  },
  {
    "City": "Muddebihal",
    "PinCode": 586212
  },
  {
    "City": "Mulund",
    "PinCode": 400080
  },
  {
    "City": "Mumbai G.P.O.",
    "PinCode": 400001
  },
  {
    "City": "Mumbai central",
    "PinCode": 400008
  },
  {
    "City": "Murgaon",
    "PinCode": 403803
  },
  {
    "City": "Murtizapur",
    "PinCode": 444107
  },
  {
    "City": "Muvattupuzha",
    "PinCode": 686661
  },
  {
    "City": "Muzaffarnagar",
    "PinCode": 251001
  },
  {
    "City": "Muzaffarpur",
    "PinCode": 842001
  },
  {
    "City": "Mylapore",
    "PinCode": 600004
  },
  {
    "City": "Mysore",
    "PinCode": 570001
  },
  {
    "City": "Nabadwip",
    "PinCode": 741302
  },
  {
    "City": "Nadiad",
    "PinCode": 387001
  },
  {
    "City": "Nagaon (Nowgong)",
    "PinCode": 782001
  },
  {
    "City": "Nagaur",
    "PinCode": 341001
  },
  {
    "City": "Nagercoil",
    "PinCode": 629001
  },
  {
    "City": "Naginimira",
    "PinCode": 798622
  },
  {
    "City": "Nagpur City",
    "PinCode": 440002
  },
  {
    "City": "Nagpur G.P.O.",
    "PinCode": 440001
  },
  {
    "City": "Nahan",
    "PinCode": 173001
  },
  {
    "City": "Naharlagon",
    "PinCode": 791110
  },
  {
    "City": "Nainital",
    "PinCode": 263001
  },
  {
    "City": "Nalbari",
    "PinCode": 781335
  },
  {
    "City": "Nalgonda",
    "PinCode": 508001
  },
  {
    "City": "Namakkal",
    "PinCode": 637001
  },
  {
    "City": "Nambol",
    "PinCode": 795134
  },
  {
    "City": "Namchi",
    "PinCode": 737126
  },
  {
    "City": "Nampong",
    "PinCode": 792123
  },
  {
    "City": "Namsai",
    "PinCode": 792103
  },
  {
    "City": "Nanded",
    "PinCode": 431601
  },
  {
    "City": "Nandyal",
    "PinCode": 518501
  },
  {
    "City": "Nangalbibra",
    "PinCode": 794107
  },
  {
    "City": "Nanglayer",
    "PinCode": 793009
  },
  {
    "City": "Nangthumai",
    "PinCode": 793014
  },
  {
    "City": "Nanjangud",
    "PinCode": 571301
  },
  {
    "City": "Narasipatnam",
    "PinCode": 531116
  },
  {
    "City": "Nargarpattinam",
    "PinCode": 611001
  },
  {
    "City": "Nargund",
    "PinCode": 582207
  },
  {
    "City": "Narnaul",
    "PinCode": 123001
  },
  {
    "City": "Narsinghpur",
    "PinCode": 487001
  },
  {
    "City": "Nashik",
    "PinCode": 422001
  },
  {
    "City": "Nashik road",
    "PinCode": 422001
  },
  {
    "City": "Nasirabad",
    "PinCode": 305601
  },
  {
    "City": "Navrangpura",
    "PinCode": 380009
  },
  {
    "City": "Navsari",
    "PinCode": 396445
  },
  {
    "City": "Nawabganj",
    "PinCode": 208002
  },
  {
    "City": "Nawada",
    "PinCode": 805110
  },
  {
    "City": "Naya bangla",
    "PinCode": 793105
  },
  {
    "City": "Nayagarh",
    "PinCode": 752069
  },
  {
    "City": "Nayudupeta",
    "PinCode": 524126
  },
  {
    "City": "Neembathana Town",
    "PinCode": 332713
  },
  {
    "City": "Neemuch",
    "PinCode": 458441
  },
  {
    "City": "Nellore",
    "PinCode": 524001
  },
  {
    "City": "Nevare",
    "PinCode": 403104
  },
  {
    "City": "New Grain Mandi (Kota)",
    "PinCode": 324007
  },
  {
    "City": "Neyyattinkara",
    "PinCode": 695121
  },
  {
    "City": "Nilakottai",
    "PinCode": 624208
  },
  {
    "City": "Nirjuli",
    "PinCode": 791109
  },
  {
    "City": "Nizamabad",
    "PinCode": 503001
  },
  {
    "City": "Nongpoh",
    "PinCode": 793102
  },
  {
    "City": "Nongstoin",
    "PinCode": 793119
  },
  {
    "City": "North Lakhimpur",
    "PinCode": 787001
  },
  {
    "City": "Nungba",
    "PinCode": 795147
  },
  {
    "City": "Nuvem",
    "PinCode": 403604
  },
  {
    "City": "Nuzuid",
    "PinCode": 521201
  },
  {
    "City": "Olavakkot",
    "PinCode": 678002
  },
  {
    "City": "Ongole",
    "PinCode": 523001
  },
  {
    "City": "Orai",
    "PinCode": 285001
  },
  {
    "City": "Osmanabad",
    "PinCode": 413501
  },
  {
    "City": "Ottapalm",
    "PinCode": 679101
  },
  {
    "City": "Padrauna",
    "PinCode": 274304
  },
  {
    "City": "Pagaiyangdong",
    "PinCode": 795114
  },
  {
    "City": "Paicharthal",
    "PinCode": 799263
  },
  {
    "City": "Paitur Bazar",
    "PinCode": 799279
  },
  {
    "City": "Palai",
    "PinCode": 686575
  },
  {
    "City": "Palakkad",
    "PinCode": 678001
  },
  {
    "City": "Palakol",
    "PinCode": 534260
  },
  {
    "City": "Palampur",
    "PinCode": 176061
  },
  {
    "City": "Palani",
    "PinCode": 624601
  },
  {
    "City": "Palanpur",
    "PinCode": 385001
  },
  {
    "City": "Palayamkottai",
    "PinCode": 627002
  },
  {
    "City": "Palel",
    "PinCode": 795135
  },
  {
    "City": "Palghar",
    "PinCode": 401404
  },
  {
    "City": "Pali",
    "PinCode": 306401
  },
  {
    "City": "Palmaner",
    "PinCode": 517408
  },
  {
    "City": "Panagi",
    "PinCode": 403001
  },
  {
    "City": "Panaji G.P.O",
    "PinCode": 403711
  },
  {
    "City": "Pandharpur",
    "PinCode": 413304
  },
  {
    "City": "Pani Chowki Bazar",
    "PinCode": 799277
  },
  {
    "City": "Pani Sagar",
    "PinCode": 799260
  },
  {
    "City": "Panipat",
    "PinCode": 132103
  },
  {
    "City": "Panna",
    "PinCode": 488001
  },
  {
    "City": "Panvel",
    "PinCode": 410206
  },
  {
    "City": "Papanasam",
    "PinCode": 614205
  },
  {
    "City": "Paramakudi",
    "PinCode": 623707
  },
  {
    "City": "Paratwada",
    "PinCode": 444805
  },
  {
    "City": "Parbhani",
    "PinCode": 431401
  },
  {
    "City": "Park Town",
    "PinCode": 600003
  },
  {
    "City": "Parkal",
    "PinCode": 506164
  },
  {
    "City": "Parlakhemudi",
    "PinCode": 761200
  },
  {
    "City": "Parleshwar",
    "PinCode": 400057
  },
  {
    "City": "Parvathipuram",
    "PinCode": 532501
  },
  {
    "City": "Pasighat",
    "PinCode": 791102
  },
  {
    "City": "Patan",
    "PinCode": 384265
  },
  {
    "City": "Pathanamthitta",
    "PinCode": 689645
  },
  {
    "City": "Patiala",
    "PinCode": 147001
  },
  {
    "City": "Patna G.P.O",
    "PinCode": 800001
  },
  {
    "City": "Pattukottai",
    "PinCode": 614601
  },
  {
    "City": "Pauri",
    "PinCode": 246001
  },
  {
    "City": "Peddapalli",
    "PinCode": 505172
  },
  {
    "City": "Penursala",
    "PinCode": 793110
  },
  {
    "City": "Peren",
    "PinCode": 797101
  },
  {
    "City": "Periyakulam",
    "PinCode": 625601
  },
  {
    "City": "Perumbavoor",
    "PinCode": 683542
  },
  {
    "City": "Phagwara",
    "PinCode": 144401
  },
  {
    "City": "Phalaing",
    "PinCode": 796431
  },
  {
    "City": "Phatikarai",
    "PinCode": 799290
  },
  {
    "City": "Phatikchara",
    "PinCode": 799214
  },
  {
    "City": "Phenk",
    "PinCode": 797108
  },
  {
    "City": "Phulbani",
    "PinCode": 762001
  },
  {
    "City": "Phulbari",
    "PinCode": 794104
  },
  {
    "City": "Phutmouri",
    "PinCode": 793008
  },
  {
    "City": "Pilibhit",
    "PinCode": 262001
  },
  {
    "City": "Pithoragarh",
    "PinCode": 262501
  },
  {
    "City": "Pollachi",
    "PinCode": 642001
  },
  {
    "City": "Ponani",
    "PinCode": 679577
  },
  {
    "City": "Pondicherry",
    "PinCode": 605001
  },
  {
    "City": "Porbandar",
    "PinCode": 360575
  },
  {
    "City": "Port Blair",
    "PinCode": 744101
  },
  {
    "City": "Pratapgarh",
    "PinCode": 230001
  },
  {
    "City": "Proddatur",
    "PinCode": 516360
  },
  {
    "City": "Pudukottai",
    "PinCode": 622001
  },
  {
    "City": "Pulivendla",
    "PinCode": 516115
  },
  {
    "City": "Punalur",
    "PinCode": 691305
  },
  {
    "City": "Pune",
    "PinCode": 411001
  },
  {
    "City": "Pune City",
    "PinCode": 411002
  },
  {
    "City": "Pupterow",
    "PinCode": 797107
  },
  {
    "City": "Puri",
    "PinCode": 752001
  },
  {
    "City": "Purnea",
    "PinCode": 854301
  },
  {
    "City": "Purulai",
    "PinCode": 744101
  },
  {
    "City": "Puttur",
    "PinCode": 574201
  },
  {
    "City": "Quilandy",
    "PinCode": 673305
  },
  {
    "City": "Rabindranath Tagore Nagar",
    "PinCode": 560032
  },
  {
    "City": "Radhanagar",
    "PinCode": 799153
  },
  {
    "City": "Rae Bareli",
    "PinCode": 229001
  },
  {
    "City": "Raghunathganj",
    "PinCode": 742225
  },
  {
    "City": "Raibag",
    "PinCode": 591317
  },
  {
    "City": "Raichur",
    "PinCode": 584101
  },
  {
    "City": "Raigarh",
    "PinCode": 496001
  },
  {
    "City": "Raipur",
    "PinCode": 492001
  },
  {
    "City": "Rairangpur",
    "PinCode": 757043
  },
  {
    "City": "Raisen",
    "PinCode": 464551
  },
  {
    "City": "Rajaji Nagar",
    "PinCode": 560010
  },
  {
    "City": "Rajampet",
    "PinCode": 516115
  },
  {
    "City": "Rajamundry",
    "PinCode": 533101
  },
  {
    "City": "Rajapalayam",
    "PinCode": 626117
  },
  {
    "City": "Rajgarh",
    "PinCode": 465661
  },
  {
    "City": "Rajkot",
    "PinCode": 360001
  },
  {
    "City": "Rajnagar",
    "PinCode": 799158
  },
  {
    "City": "Rajnandgaon",
    "PinCode": 491441
  },
  {
    "City": "Rajouri",
    "PinCode": 185131
  },
  {
    "City": "Rajpura",
    "PinCode": 140401
  },
  {
    "City": "Ramachandrapuram",
    "PinCode": 533255
  },
  {
    "City": "Ramanathapuram",
    "PinCode": 623501
  },
  {
    "City": "Ramdurg",
    "PinCode": 591123
  },
  {
    "City": "Ramgarh Cantt.",
    "PinCode": 829112
  },
  {
    "City": "Ramkrishna Mission",
    "PinCode": 791113
  },
  {
    "City": "Ramlun",
    "PinCode": 796012
  },
  {
    "City": "Ramnagar",
    "PinCode": 799002
  },
  {
    "City": "Rampur",
    "PinCode": 244901
  },
  {
    "City": "Rampur Bushahr",
    "PinCode": 172001
  },
  {
    "City": "Rampurhat",
    "PinCode": 731224
  },
  {
    "City": "Ranaghat",
    "PinCode": 741201
  },
  {
    "City": "Ranchi",
    "PinCode": 834001
  },
  {
    "City": "Rangpo",
    "PinCode": 737126
  },
  {
    "City": "Raniganj",
    "PinCode": 713347
  },
  {
    "City": "Ranikhet",
    "PinCode": 263645
  },
  {
    "City": "Ranipet",
    "PinCode": 632401
  },
  {
    "City": "Rannebennur",
    "PinCode": 581115
  },
  {
    "City": "Rasra",
    "PinCode": 221712
  },
  {
    "City": "Ratangarh",
    "PinCode": 331022
  },
  {
    "City": "Rathinasabapathipuram",
    "PinCode": 641002
  },
  {
    "City": "Ratlam",
    "PinCode": 457001
  },
  {
    "City": "Ratnagiri",
    "PinCode": 415612
  },
  {
    "City": "Rayagada",
    "PinCode": 765001
  },
  {
    "City": "Rayak",
    "PinCode": 796501
  },
  {
    "City": "Razole",
    "PinCode": 533342
  },
  {
    "City": "Recong Peo",
    "PinCode": 172107
  },
  {
    "City": "Repalle",
    "PinCode": 522265
  },
  {
    "City": "Resubelpada",
    "PinCode": 794108
  },
  {
    "City": "Revdi Bazaar",
    "PinCode": 380002
  },
  {
    "City": "Rewa",
    "PinCode": 486001
  },
  {
    "City": "Rohtak",
    "PinCode": 124001
  },
  {
    "City": "Roing",
    "PinCode": 792110
  },
  {
    "City": "Rongjing",
    "PinCode": 794110
  },
  {
    "City": "Rongra",
    "PinCode": 794114
  },
  {
    "City": "Roorkee",
    "PinCode": 247667
  },
  {
    "City": "Rourkela",
    "PinCode": 769001
  },
  {
    "City": "Rupnagar (Ropar)",
    "PinCode": 140001
  },
  {
    "City": "Sagar (Shinoga)",
    "PinCode": 577401
  },
  {
    "City": "Sagar Cantt.",
    "PinCode": 470001
  },
  {
    "City": "Saharnpur",
    "PinCode": 247001
  },
  {
    "City": "Saharsa",
    "PinCode": 852201
  },
  {
    "City": "Saiha",
    "PinCode": 796901
  },
  {
    "City": "Saijussa",
    "PinCode": 790103
  },
  {
    "City": "Saikot",
    "PinCode": 795117
  },
  {
    "City": "Sairang",
    "PinCode": 796410
  },
  {
    "City": "Saitul",
    "PinCode": 796261
  },
  {
    "City": "Salem",
    "PinCode": 636001
  },
  {
    "City": "Salkia",
    "PinCode": 711106
  },
  {
    "City": "Samalkot",
    "PinCode": 533440
  },
  {
    "City": "Samastipur",
    "PinCode": 848101
  },
  {
    "City": "Sambalpur",
    "PinCode": 768001
  },
  {
    "City": "Sanbhar Lake",
    "PinCode": 303604
  },
  {
    "City": "Sandila",
    "PinCode": 241204
  },
  {
    "City": "Sangareddy",
    "PinCode": 502001
  },
  {
    "City": "Sangli",
    "PinCode": 416416
  },
  {
    "City": "Sango",
    "PinCode": 796810
  },
  {
    "City": "Sangrur",
    "PinCode": 148001
  },
  {
    "City": "Sankarankoil",
    "PinCode": 627756
  },
  {
    "City": "Santa",
    "PinCode": 485001
  },
  {
    "City": "Santacruz",
    "PinCode": 403005
  },
  {
    "City": "Saraswathipuram",
    "PinCode": 570009
  },
  {
    "City": "Sasaram",
    "PinCode": 821115
  },
  {
    "City": "Satara",
    "PinCode": 415001
  },
  {
    "City": "Sattenapalle",
    "PinCode": 522403
  },
  {
    "City": "Sawaimadhopur",
    "PinCode": 322001
  },
  {
    "City": "Sawantwadi",
    "PinCode": 416510
  },
  {
    "City": "Secunderabad",
    "PinCode": 500003
  },
  {
    "City": "Sehore",
    "PinCode": 466001
  },
  {
    "City": "Sekmai",
    "PinCode": 795136
  },
  {
    "City": "Senapati",
    "PinCode": 795106
  },
  {
    "City": "Senpura",
    "PinCode": 792111
  },
  {
    "City": "Seoni",
    "PinCode": 480661
  },
  {
    "City": "Seppa",
    "PinCode": 790102
  },
  {
    "City": "Serampore",
    "PinCode": 712201
  },
  {
    "City": "Serchhip",
    "PinCode": 796181
  },
  {
    "City": "Shabroom",
    "PinCode": 799145
  },
  {
    "City": "Shahabad",
    "PinCode": 585228
  },
  {
    "City": "Shahdol",
    "PinCode": 484001
  },
  {
    "City": "Shahjahanpur",
    "PinCode": 242001
  },
  {
    "City": "Shahpura",
    "PinCode": 303103
  },
  {
    "City": "Shajapur",
    "PinCode": 465001
  },
  {
    "City": "Shalima",
    "PinCode": 799278
  },
  {
    "City": "Shamli",
    "PinCode": 247776
  },
  {
    "City": "Shastrinagar (Jaipur)",
    "PinCode": 302016
  },
  {
    "City": "Shastrinagar (Jodhpur)",
    "PinCode": 342003
  },
  {
    "City": "Shatchand",
    "PinCode": 799213
  },
  {
    "City": "Shillong G.P.O",
    "PinCode": 793001
  },
  {
    "City": "Shimla",
    "PinCode": 171001
  },
  {
    "City": "Shimoga",
    "PinCode": 577201
  },
  {
    "City": "Shiroda",
    "PinCode": 403103
  },
  {
    "City": "Shivajinagar Pune",
    "PinCode": 411005
  },
  {
    "City": "Shivali",
    "PinCode": 403517
  },
  {
    "City": "Shivpuri",
    "PinCode": 473551
  },
  {
    "City": "Shorapur",
    "PinCode": 585224
  },
  {
    "City": "Shrikakulam",
    "PinCode": 532001
  },
  {
    "City": "Shrikalahasti",
    "PinCode": 517644
  },
  {
    "City": "Shrirampur",
    "PinCode": 413709
  },
  {
    "City": "Sibsagar",
    "PinCode": 785640
  },
  {
    "City": "Siddipet",
    "PinCode": 502103
  },
  {
    "City": "Sidhi",
    "PinCode": 486661
  },
  {
    "City": "Silchar",
    "PinCode": 788001
  },
  {
    "City": "Simra",
    "PinCode": 799213
  },
  {
    "City": "Singghat",
    "PinCode": 795139
  },
  {
    "City": "Singjamai bazar",
    "PinCode": 795137
  },
  {
    "City": "Sirkali",
    "PinCode": 609110
  },
  {
    "City": "Sirohi",
    "PinCode": 307001
  },
  {
    "City": "Sirsa",
    "PinCode": 125055
  },
  {
    "City": "Sirsi",
    "PinCode": 581401
  },
  {
    "City": "Sitamarhi",
    "PinCode": 843301
  },
  {
    "City": "Sitapur",
    "PinCode": 261001
  },
  {
    "City": "Sivakasi",
    "PinCode": 626123
  },
  {
    "City": "Siwan",
    "PinCode": 841226
  },
  {
    "City": "Solan",
    "PinCode": 173212
  },
  {
    "City": "Solapur",
    "PinCode": 413001
  },
  {
    "City": "Somdal",
    "PinCode": 795144
  },
  {
    "City": "Sonepat",
    "PinCode": 131001
  },
  {
    "City": "Sri Rangam",
    "PinCode": 620006
  },
  {
    "City": "Sriganganagar",
    "PinCode": 335001
  },
  {
    "City": "Srimadhopur",
    "PinCode": 332715
  },
  {
    "City": "Srinagar GPO",
    "PinCode": 190001
  },
  {
    "City": "Srirangapatna",
    "PinCode": 571438
  },
  {
    "City": "Srivaikuntam",
    "PinCode": 628601
  },
  {
    "City": "St.Thomas Mount",
    "PinCode": 600016
  },
  {
    "City": "Station Jadcheral",
    "PinCode": 509301
  },
  {
    "City": "Station Kachiguda",
    "PinCode": 500027
  },
  {
    "City": "Sugumu",
    "PinCode": 795101
  },
  {
    "City": "Sullia",
    "PinCode": 574239
  },
  {
    "City": "Sultanpur",
    "PinCode": 228001
  },
  {
    "City": "Sumer",
    "PinCode": 793104
  },
  {
    "City": "Sunamura",
    "PinCode": 799131
  },
  {
    "City": "Sundargargh",
    "PinCode": 770001
  },
  {
    "City": "Sundernagar Township",
    "PinCode": 174402
  },
  {
    "City": "Suramangalam",
    "PinCode": 636005
  },
  {
    "City": "Surat",
    "PinCode": 395003
  },
  {
    "City": "Surendra Nagar",
    "PinCode": 363001
  },
  {
    "City": "Suryapet",
    "PinCode": 508213
  },
  {
    "City": "Tadepalligudam",
    "PinCode": 534101
  },
  {
    "City": "Tadpatri",
    "PinCode": 515411
  },
  {
    "City": "Taliparamba",
    "PinCode": 670141
  },
  {
    "City": "Tallakulam",
    "PinCode": 625002
  },
  {
    "City": "Tambaram",
    "PinCode": 600045
  },
  {
    "City": "Tandur",
    "PinCode": 501141
  },
  {
    "City": "Tanuku",
    "PinCode": 534211
  },
  {
    "City": "Taran Taran",
    "PinCode": 143401
  },
  {
    "City": "Tehri",
    "PinCode": 249001
  },
  {
    "City": "Tekkali",
    "PinCode": 532201
  },
  {
    "City": "Telimura",
    "PinCode": 799205
  },
  {
    "City": "Tenali",
    "PinCode": 522201
  },
  {
    "City": "Tenkasi",
    "PinCode": 627811
  },
  {
    "City": "Tezpur",
    "PinCode": 784001
  },
  {
    "City": "Thalassery",
    "PinCode": 670101
  },
  {
    "City": "Thane",
    "PinCode": 400601
  },
  {
    "City": "Thanjavur",
    "PinCode": 613001
  },
  {
    "City": "Thingdol",
    "PinCode": 796075
  },
  {
    "City": "Thinghai",
    "PinCode": 796581
  },
  {
    "City": "Thingshul Theleha",
    "PinCode": 796161
  },
  {
    "City": "Thiruvallur",
    "PinCode": 602001
  },
  {
    "City": "Thiruvananthapuram G.P.O",
    "PinCode": 695001
  },
  {
    "City": "Thodupuzha",
    "PinCode": 685584
  },
  {
    "City": "Thrissur",
    "PinCode": 680001
  },
  {
    "City": "Thuckalay",
    "PinCode": 629175
  },
  {
    "City": "Thuraiyur",
    "PinCode": 621010
  },
  {
    "City": "Thuraiyur",
    "PinCode": 621010
  },
  {
    "City": "Thyagaraynagar",
    "PinCode": 600017
  },
  {
    "City": "Thycaud",
    "PinCode": 695014
  },
  {
    "City": "Tikamgarh",
    "PinCode": 472001
  },
  {
    "City": "Tilakwadi East",
    "PinCode": 590006
  },
  {
    "City": "Tindivanam",
    "PinCode": 604001
  },
  {
    "City": "Tinsukia",
    "PinCode": 786125
  },
  {
    "City": "Tiptur",
    "PinCode": 572201
  },
  {
    "City": "Tiruchendur",
    "PinCode": 628215
  },
  {
    "City": "Tiruchengudo",
    "PinCode": 637211
  },
  {
    "City": "Tiruchirappalli",
    "PinCode": 620001
  },
  {
    "City": "Tirukkoyilur",
    "PinCode": 605757
  },
  {
    "City": "Tirunelveli",
    "PinCode": 627001
  },
  {
    "City": "Tirupati",
    "PinCode": 517501
  },
  {
    "City": "Tiruppattur",
    "PinCode": 635601
  },
  {
    "City": "Tirupur",
    "PinCode": 641601
  },
  {
    "City": "Tirur",
    "PinCode": 676101
  },
  {
    "City": "Tiruthuraipundi",
    "PinCode": 614713
  },
  {
    "City": "Tiruvalla",
    "PinCode": 689101
  },
  {
    "City": "Tiruvannamalai",
    "PinCode": 606601
  },
  {
    "City": "Tiruvarur",
    "PinCode": 610001
  },
  {
    "City": "Tisk",
    "PinCode": 403406
  },
  {
    "City": "Tong",
    "PinCode": 734224
  },
  {
    "City": "Tonk",
    "PinCode": 304001
  },
  {
    "City": "Trimulgherry",
    "PinCode": 500015
  },
  {
    "City": "Tripuradam Chera",
    "PinCode": 799256
  },
  {
    "City": "Tuipang",
    "PinCode": 796911
  },
  {
    "City": "Tumkur",
    "PinCode": 572101
  },
  {
    "City": "Turiyur",
    "PinCode": 628001
  },
  {
    "City": "Udagamandalam",
    "PinCode": 643001
  },
  {
    "City": "Udaipur",
    "PinCode": 313001
  },
  {
    "City": "Udamalpet",
    "PinCode": 642126
  },
  {
    "City": "Udhampur",
    "PinCode": 182101
  },
  {
    "City": "Udupi",
    "PinCode": 576101
  },
  {
    "City": "Ujjain",
    "PinCode": 456001
  },
  {
    "City": "Ukhrul",
    "PinCode": 795142
  },
  {
    "City": "Umsao",
    "PinCode": 793123
  },
  {
    "City": "Una",
    "PinCode": 174303
  },
  {
    "City": "Union Christian College",
    "PinCode": 793122
  },
  {
    "City": "Unjha",
    "PinCode": 384170
  },
  {
    "City": "Unnao",
    "PinCode": 209801
  },
  {
    "City": "Upling",
    "PinCode": 793006
  },
  {
    "City": "Upper Shillong",
    "PinCode": 793005
  },
  {
    "City": "Vadakancherry",
    "PinCode": 680582
  },
  {
    "City": "Vadakara",
    "PinCode": 673101
  },
  {
    "City": "Vadodara",
    "PinCode": 390001
  },
  {
    "City": "Vaikom",
    "PinCode": 686141
  },
  {
    "City": "Vairangte",
    "PinCode": 796101
  },
  {
    "City": "Vaivakown",
    "PinCode": 796009
  },
  {
    "City": "Vajapur",
    "PinCode": 382870
  },
  {
    "City": "Valsad",
    "PinCode": 396001
  },
  {
    "City": "Varanasi",
    "PinCode": 221002
  },
  {
    "City": "Vasco Da Gama",
    "PinCode": 403802
  },
  {
    "City": "Vela",
    "PinCode": 412212
  },
  {
    "City": "Vellore",
    "PinCode": 632001
  },
  {
    "City": "Veraval",
    "PinCode": 362265
  },
  {
    "City": "Vidisha",
    "PinCode": 464001
  },
  {
    "City": "Vijay nagar",
    "PinCode": 792055
  },
  {
    "City": "Vijaywada",
    "PinCode": 520001
  },
  {
    "City": "Vikarabad",
    "PinCode": 501101
  },
  {
    "City": "Villupuram",
    "PinCode": 605602
  },
  {
    "City": "Vimangad",
    "PinCode": 799015
  },
  {
    "City": "Virudhunagar",
    "PinCode": 626001
  },
  {
    "City": "Visakhapatnam",
    "PinCode": 530001
  },
  {
    "City": "Visnagar",
    "PinCode": 384315
  },
  {
    "City": "Vizianagaram",
    "PinCode": 531202
  },
  {
    "City": "Waltair R.S.",
    "PinCode": 530004
  },
  {
    "City": "Wanaparthy",
    "PinCode": 509103
  },
  {
    "City": "Warangal",
    "PinCode": 506002
  },
  {
    "City": "Wardha",
    "PinCode": 442001
  },
  {
    "City": "Williamnagar",
    "PinCode": 794111
  },
  {
    "City": "Wokha",
    "PinCode": 797111
  },
  {
    "City": "Yadagiri",
    "PinCode": 585201
  },
  {
    "City": "Yeotamal",
    "PinCode": 445001
  },
  {
    "City": "Yeshwant Road (Indore)",
    "PinCode": 452004
  },
  {
    "City": "Yonghong",
    "PinCode": 798617
  },
  {
    "City": "Zahirabad",
    "PinCode": 502220
  },
  {
    "City": "Zamania",
    "PinCode": 232329
  },
  {
    "City": "Zunhebato",
    "PinCode": 798620
  }
]
